STARLINK-2334
1 17792C 21018F   21326.18994228 -.00021285  00000-0 -14261-2 0  3268
2 17792  53.0567  72.8918 0001265  77.9361 252.5170 15.06419621    17
